H1 CPF 01  gfz 2021 05 16 12  6362 tandemx   
H2 1003001  6202 36605    2021 05 16 12 59 42 2021 05 21 00 00 42   120 1 1  0 0 0
H9
10 0 59353  35982.000000  0   -1550373.646   4025792.456   5360246.214
10 0 59353  36102.000000  0   -1081466.120   3419290.080   5870860.426
10 0 59353  36222.000000  0    -604884.379   2744804.572   6278225.678
10 0 59353  36342.000000  0    -130040.230   2014077.770   6575214.771
10 0 59353  36462.000000  0     333905.543   1239985.428   6756636.797
10 0 59353  36582.000000  0     778219.362    436307.383   6819322.637
10 0 59353  36702.000000  0    1194758.179   -382517.526   6762176.054
10 0 59353  36822.000000  0    1576117.909  -1201650.101   6586192.832
10 0 59353  36942.000000  0    1915765.102  -2006119.291   6294444.581
10 0 59353  37062.000000  0    2208149.552  -2781095.787   5892029.364
10 0 59353  37182.000000  0    2448796.489  -3512167.358   5385987.877
10 0 59353  37302.000000  0    2634376.072  -4185610.006   4785185.378
10 0 59353  37422.000000  0    2762749.328  -4788650.385   4100162.297
10 0 59353  37542.000000  0    2832990.578  -5309715.186   3342952.873
10 0 59353  37662.000000  0    2845384.007  -5738661.150   2526875.242
10 0 59353  37782.000000  0    2801394.610  -6066980.780   1666295.202
10 0 59353  37902.000000  0    2703613.544  -6287976.320    776368.919
10 0 59353  38022.000000  0    2555681.263  -6396900.639   -127229.129
10 0 59353  38142.000000  0    2362188.473  -6391061.106  -1028591.011
10 0 59353  38262.000000  0    2128556.606  -6269880.070  -1911865.860
10 0 59353  38382.000000  0    1860901.862  -6034913.043  -2761545.943
10 0 59353  38502.000000  0    1565885.638  -5689824.115  -3562746.495
10 0 59353  38622.000000  0    1250556.548  -5240316.460  -4301467.803
10 0 59353  38742.000000  0     922189.943  -4694026.321  -4964837.827
10 0 59353  38862.000000  0     588126.293  -4060381.614  -5541330.771
10 0 59353  38982.000000  0     255612.778  -3350428.986  -6020959.008
10 0 59353  39102.000000  0     -68348.520  -2576633.236  -6395435.256
10 0 59353  39222.000000  0    -377142.769  -1752654.165  -6658304.065
10 0 59353  39342.000000  0    -664672.499   -893105.126  -6805042.292
10 0 59353  39462.000000  0    -925473.313    -13296.569  -6833129.018
10 0 59353  39582.000000  0   -1154814.289    871031.393  -6742082.939
10 0 59353  39702.000000  0   -1348781.657   1743982.958  -6533469.353
10 0 59353  39822.000000  0   -1504344.056   2589784.946  -6210875.903
10 0 59353  39942.000000  0   -1619399.417   3393065.882  -5779859.222
10 0 59353  40062.000000  0   -1692802.659   4139133.137  -5247858.967
10 0 59353  40182.000000  0   -1724373.242   4814242.378  -4624081.224
10 0 59353  40302.000000  0   -1714883.053   5405856.038  -3919350.103
10 0 59353  40422.000000  0   -1666023.541   5902883.581  -3145928.582
10 0 59353  40542.000000  0   -1580352.542   6295898.628  -2317312.321
10 0 59353  40662.000000  0   -1461222.541   6577329.695  -1447998.357
10 0 59353  40782.000000  0   -1312690.868   6741617.123   -553231.015
10 0 59353  40902.000000  0   -1139414.274   6785333.180    351267.848
10 0 59353  41022.000000  0    -946529.577   6707262.306   1249582.398
10 0 59353  41142.000000  0    -739524.076   6508434.818   2125894.079
10 0 59353  41262.000000  0    -524098.655   6192112.505   2964769.392
10 0 59353  41382.000000  0    -306027.555   5763730.900   3751437.974
10 0 59353  41502.000000  0     -91019.022   5230800.492   4472057.403
10 0 59353  41622.000000  0     115420.844   4602766.153   5113963.405
10 0 59353  41742.000000  0     308118.628   3890825.760   5665889.778
10 0 59353  41862.000000  0     482353.199   3107723.932   6118162.152
10 0 59353  41982.000000  0     633962.589   2267515.258   6462863.778
10 0 59353  42102.000000  0     759436.272   1385306.464   6693967.731
10 0 59353  42222.000000  0     855991.327    476981.057   6807436.560
10 0 59353  42342.000000  0     921630.990   -441086.901   6801287.633
10 0 59353  42462.000000  0     955184.713  -1352327.008   6675626.899
10 0 59353  42582.000000  0     956329.033  -2240271.619   6432647.620
10 0 59353  42702.000000  0     925588.964  -3088853.832   6076595.157
10 0 59353  42822.000000  0     864319.289  -3882700.732   5613696.088
10 0 59353  42942.000000  0     774667.178  -4607413.572   5052053.441
10 0 59353  43062.000000  0     659517.260  -5249833.097   4401511.702
10 0 59353  43182.000000  0     522419.055  -5798287.313   3673490.543
10 0 59353  43302.000000  0     367497.666  -6242814.232   2880786.870
10 0 59353  43422.000000  0     199350.086  -6575353.110   2037349.362
10 0 59353  43542.000000  0      22929.269  -6789899.225   1158030.389
10 0 59353  43662.000000  0    -156580.657  -6882621.358    258319.513
10 0 59353  43782.000000  0    -333896.210  -6851935.075   -645939.289
10 0 59353  43902.000000  0    -503768.256  -6698528.450  -1538836.706
10 0 59353  44022.000000  0    -661114.400  -6425341.824  -2404685.895
10 0 59353  44142.000000  0    -801147.233  -6037504.190  -3228304.080
10 0 59353  44262.000000  0    -919495.427  -5542226.663  -3995283.059
10 0 59353  44382.000000  0   -1012314.273  -4948655.331  -4692241.925
10 0 59353  44502.000000  0   -1076383.050  -4267689.403  -5307056.054
10 0 59353  44622.000000  0   -1109187.448  -3511770.373  -5829060.482
10 0 59353  44742.000000  0   -1108985.158  -2694646.571  -6249225.221
10 0 59353  44862.000000  0   -1074853.802  -1831117.900  -6560300.354
10 0 59353  44982.000000  0   -1006720.674   -936766.701  -6756929.360
10 0 59353  45102.000000  0    -905374.284    -27679.435  -6835731.789
10 0 59353  45222.000000  0    -772456.591    879837.374  -6795354.257
10 0 59353  45342.000000  0    -610436.562   1769541.746  -6636490.578
10 0 59353  45462.000000  0    -422566.223   2625539.179  -6361871.182
10 0 59353  45582.000000  0    -212818.898   3432560.597  -5976222.736
10 0 59353  45702.000000  0      14190.337   4176232.693  -5486195.896
10 0 59353  45822.000000  0     253299.904   4843333.863  -4900260.930
10 0 59353  45942.000000  0     498910.991   5422033.966  -4228573.390
10 0 59353  46062.000000  0     745109.685   5902112.726  -3482808.285
10 0 59353  46182.000000  0     985799.419   6275150.840  -2675965.171
10 0 59353  46302.000000  0    1214841.044   6534690.201  -1822146.790
10 0 59353  46422.000000  0    1426197.407   6676358.641   -936313.563
10 0 59353  46542.000000  0    1614079.107   6697954.718    -34018.318
10 0 59353  46662.000000  0    1773087.218   6599488.733    868873.152
10 0 59353  46782.000000  0    1898348.643   6383179.667   1756468.421
10 0 59353  46902.000000  0    1985641.828   6053408.451   2613136.198
10 0 59353  47022.000000  0    2031509.224   5616628.177   3423789.363
10 0 59353  47142.000000  0    2033353.488   5081233.627   4174158.310
10 0 59353  47262.000000  0    1989514.087   4457391.964   4851047.667
10 0 59353  47382.000000  0    1899323.764   3756838.045   5442570.614
10 0 59353  47502.000000  0    1763142.491   2992644.128   5938353.191
10 0 59353  47622.000000  0    1582370.464   2178969.950   6329712.159
10 0 59353  47742.000000  0    1359438.258   1330794.419   6609802.467
10 0 59353  47862.000000  0    1097775.006    463635.453   6773730.282
10 0 59353  47982.000000  0     801755.520   -406734.025   6818632.201
10 0 59353  48102.000000  0     476627.036  -1264571.979   6743723.832
10 0 59353  48222.000000  0     128415.962  -2094452.412   6550313.080
10 0 59353  48342.000000  0    -236183.925  -2881542.954   6241778.719
10 0 59353  48462.000000  0    -609939.076  -3611871.518   5823513.312
10 0 59353  48582.000000  0    -985216.709  -4272574.843   5302832.694
10 0 59353  48702.000000  0   -1354137.599  -4852128.514   4688856.319
10 0 59353  48822.000000  0   -1708740.134  -5340556.685   3992355.254
10 0 59353  48942.000000  0   -2041150.343  -5729614.196   3225566.347
10 0 59353  49062.000000  0   -2343754.403  -6012934.484   2401977.224
10 0 59353  49182.000000  0   -2609369.453  -6186140.876   1536087.046
10 0 59353  49302.000000  0   -2831408.047  -6246919.520    643146.420
10 0 59353  49422.000000  0   -3004032.490  -6195051.170   -261118.386
10 0 59353  49542.000000  0   -3122294.989  -6032400.765  -1160790.991
10 0 59353  49662.000000  0   -3182260.240  -5762864.645  -2040054.086
10 0 59353  49782.000000  0   -3181107.364  -5392276.859  -2883475.422
10 0 59353  49902.000000  0   -3117208.359  -4928277.221  -3676284.555
10 0 59353  50022.000000  0   -2990180.844  -4380144.871  -4404633.341
10 0 59353  50142.000000  0   -2800914.947  -3758603.653  -5055835.049
10 0 59353  50262.000000  0   -2551574.776  -3075604.313  -5618579.181
10 0 59353  50382.000000  0   -2245574.929  -2344088.513  -6083119.114
10 0 59353  50502.000000  0   -1887531.921  -1577739.885  -6441430.727
10 0 59353  50622.000000  0   -1483191.812   -790726.891  -6687339.418
10 0 59353  50742.000000  0   -1039337.173      2556.940  -6816614.787
10 0 59353  50862.000000  0    -563674.639    787750.644  -6827034.678
10 0 59353  50982.000000  0     -64703.368   1550778.959  -6718419.231
10 0 59353  51102.000000  0     448432.035   2278097.646  -6492633.562
10 0 59353  51222.000000  0     966104.558   2956929.042  -6153561.563
10 0 59353  51342.000000  0    1478381.879   3575484.435  -5707046.126
10 0 59353  51462.000000  0    1975212.478   4123168.489  -5160797.809
10 0 59353  51582.000000  0    2446620.013   4590763.713  -4524273.677
10 0 59353  51702.000000  0    2882902.128   4970592.429  -3808524.547
10 0 59353  51822.000000  0    3274829.271   5256651.112  -3026012.146
10 0 59353  51942.000000  0    3613840.681   5444714.864  -2190398.959
10 0 59353  52062.000000  0    3892232.059   5532407.831  -1316312.139
10 0 59353  52182.000000  0    4103329.707   5519238.219   -419086.403
10 0 59353  52302.000000  0    4241646.757   5406595.740    485509.904
10 0 59353  52422.000000  0    4303017.368   5197710.248   1381559.281
99
